ONEWEB-0229             
1 48779U 21045N   25125.85081053 -.00000278  00000+0 -77340-3 0  9994
2 48779  87.9064 340.3791 0001658  79.8454 280.2864 13.15547652190857
ONEWEB-0228             
1 48780U 21045P   25125.88423219  .00000159  00000+0  38813-3 0  9991
2 48780  87.9062 340.3487 0001617  83.8550 276.2764 13.15549069190775
ONEWEB-0232             
1 48781U 21045Q   25125.85874759 -.00000086  00000+0 -26266-3 0  9998
2 48781  87.9055 340.3519 0001713  84.4091 275.7235 13.15548322191092
ONEWEB-0231             
1 48782U 21045R   25125.83655282 -.00000104  00000+0 -31031-3 0  9992
2 48782  87.9054 340.4146 0001480  80.5332 279.5966 13.15547958190787
ONEWEB-0234             
1 48783U 21045S   25125.85636111 -.00000132  00000+0 -38390-3 0  9991
2 48783  87.9060 340.3636 0002622 109.2057 250.9357 13.15548065190923
ONEWEB-0238             
1 48784U 21045T   25125.88646756  .00000131  00000+0  31422-3 0  9997
2 48784  87.9056 340.3742 0001879  89.7533 270.3813 13.15547566190828
ONEWEB-0240             
1 48785U 21045U   25125.81991386  .00000185  00000+0  45680-3 0  9993
2 48785  87.9065 340.3547 0001449  93.8028 266.3268 13.15547481190847
ONEWEB-0246             
1 48786U 21045V   25125.89042945  .00000201  00000+0  49873-3 0  9997
2 48786  87.9066 340.3501 0001686  80.4326 279.6995 13.15548914190728
